[{"OBJECT_NAME":"STARLINK-36036","OBJECT_ID":"2025-270W","EPOCH":"2025-12-14T06:34:31.700928","MEAN_MOTION":15.50602423,"ECCENTRICITY":0.00016313,"INCLINATION":42.9988,"RA_OF_ASC_NODE":183.67,"ARG_OF_PERICENTER":265.9794,"MEAN_ANOMALY":94.088,"EPHEMERIS_TYPE":0,"CLASSIFICATION_TYPE":"U","NORAD_CAT_ID":66608,"ELEMENT_SET_NO":999,"REV_AT_EPOCH":442,"BSTAR":0.0019333539,"MEAN_MOTION_DOT":0.00114854,"MEAN_MOTION_DDOT":0},{"OBJECT_NAME":"STARLINK-36034","OBJECT_ID":"2025-270X","EPOCH":"2025-12-14T06:34:01.985376","MEAN_MOTION":15.50600819,"ECCENTRICITY":0.00017596,"INCLINATION":42.9989,"RA_OF_ASC_NODE":183.6676,"ARG_OF_PERICENTER":262.0789,"MEAN_ANOMALY":97.9871,"EPHEMERIS_TYPE":0,"CLASSIFICATION_TYPE":"U","NORAD_CAT_ID":66609,"ELEMENT_SET_NO":999,"REV_AT_EPOCH":442,"BSTAR":0.0017241329,"MEAN_MOTION_DOT":0.00102216,"MEAN_MOTION_DDOT":0},{"OBJECT_NAME":"STARLINK-35680","OBJECT_ID":"2025-270Y","EPOCH":"2025-12-14T06:33:32.282784","MEAN_MOTION":15.50607541,"ECCENTRICITY":0.00017051,"INCLINATION":42.9987,"RA_OF_ASC_NODE":183.6643,"ARG_OF_PERICENTER":275.4875,"MEAN_ANOMALY":84.579,"EPHEMERIS_TYPE":0,"CLASSIFICATION_TYPE":"U","NORAD_CAT_ID":66610,"ELEMENT_SET_NO":999,"REV_AT_EPOCH":469,"BSTAR":0.0019646353,"MEAN_MOTION_DOT":0.00116768,"MEAN_MOTION_DDOT":0},{"OBJECT_NAME":"STARLINK-35583","OBJECT_ID":"2025-270Z","EPOCH":"2025-12-14T06:33:02.505888","MEAN_MOTION":15.50607099,"ECCENTRICITY":0.00018283,"INCLINATION":42.999,"RA_OF_ASC_NODE":183.6615,"ARG_OF_PERICENTER":271.1187,"MEAN_ANOMALY":88.9463,"EPHEMERIS_TYPE":0,"CLASSIFICATION_TYPE":"U","NORAD_CAT_ID":66611,"ELEMENT_SET_NO":999,"REV_AT_EPOCH":469,"BSTAR":0.001824079,"MEAN_MOTION_DOT":0.0010827,"MEAN_MOTION_DDOT":0},{"OBJECT_NAME":"STARLINK-36039","OBJECT_ID":"2025-270AA","EPOCH":"2025-12-14T06:00:02.999808","MEAN_MOTION":15.40698403,"ECCENTRICITY":0.00021215,"INCLINATION":43,"RA_OF_ASC_NODE":183.9169,"ARG_OF_PERICENTER":266.9332,"MEAN_ANOMALY":274.3131,"EPHEMERIS_TYPE":0,"CLASSIFICATION_TYPE":"U","NORAD_CAT_ID":66612,"ELEMENT_SET_NO":999,"REV_AT_EPOCH":464,"BSTAR":2.4860688e-5,"MEAN_MOTION_DOT":7.35e-6,"MEAN_MOTION_DDOT":0},{"OBJECT_NAME":"STARLINK-36037","OBJECT_ID":"2025-270AB","EPOCH":"2025-12-14T06:00:02.999808","MEAN_MOTION":15.41652139,"ECCENTRICITY":0.00013676,"INCLINATION":43,"RA_OF_ASC_NODE":183.8587,"ARG_OF_PERICENTER":278.3113,"MEAN_ANOMALY":287.3388,"EPHEMERIS_TYPE":0,"CLASSIFICATION_TYPE":"U","NORAD_CAT_ID":66613,"ELEMENT_SET_NO":999,"REV_AT_EPOCH":464,"BSTAR":-0.034130694,"MEAN_MOTION_DOT":-0.01344158,"MEAN_MOTION_DDOT":0},{"OBJECT_NAME":"STARLINK-36040","OBJECT_ID":"2025-270AC","EPOCH":"2025-12-14T06:31:04.245888","MEAN_MOTION":15.50595656,"ECCENTRICITY":0.00017195,"INCLINATION":42.9991,"RA_OF_ASC_NODE":183.6503,"ARG_OF_PERICENTER":267.9518,"MEAN_ANOMALY":92.1145,"EPHEMERIS_TYPE":0,"CLASSIFICATION_TYPE":"U","NORAD_CAT_ID":66614,"ELEMENT_SET_NO":999,"REV_AT_EPOCH":442,"BSTAR":0.0020383303,"MEAN_MOTION_DOT":0.00121178,"MEAN_MOTION_DDOT":0},{"OBJECT_NAME":"STARLINK-35988","OBJECT_ID":"2025-270AD","EPOCH":"2025-12-14T06:00:02.999808","MEAN_MOTION":15.46385081,"ECCENTRICITY":0.00012744,"INCLINATION":43.0003,"RA_OF_ASC_NODE":183.798,"ARG_OF_PERICENTER":265.2975,"MEAN_ANOMALY":325.3789,"EPHEMERIS_TYPE":0,"CLASSIFICATION_TYPE":"U","NORAD_CAT_ID":66615,"ELEMENT_SET_NO":999,"REV_AT_EPOCH":448,"BSTAR":-0.046573472,"MEAN_MOTION_DOT":-0.02092274,"MEAN_MOTION_DDOT":0},{"OBJECT_NAME":"STARLINK-35391","OBJECT_ID":"2025-270AE","EPOCH":"2025-12-14T06:30:34.272864","MEAN_MOTION":15.50604538,"ECCENTRICITY":0.00018587,"INCLINATION":42.9987,"RA_OF_ASC_NODE":183.6472,"ARG_OF_PERICENTER":262.8877,"MEAN_ANOMALY":97.1772,"EPHEMERIS_TYPE":0,"CLASSIFICATION_TYPE":"U","NORAD_CAT_ID":66616,"ELEMENT_SET_NO":999,"REV_AT_EPOCH":469,"BSTAR":0.0016498568,"MEAN_MOTION_DOT":0.00097755,"MEAN_MOTION_DDOT":0},{"OBJECT_NAME":"STARLINK-35940","OBJECT_ID":"2025-271A","EPOCH":"2025-12-14T06:00:02.999808","MEAN_MOTION":15.47506506,"ECCENTRICITY":0.00013049,"INCLINATION":53.16,"RA_OF_ASC_NODE":180.0145,"ARG_OF_PERICENTER":92.7913,"MEAN_ANOMALY":142.783,"EPHEMERIS_TYPE":0,"CLASSIFICATION_TYPE":"U","NORAD_CAT_ID":66617,"ELEMENT_SET_NO":999,"REV_AT_EPOCH":448,"BSTAR":-0.045673925,"MEAN_MOTION_DOT":-0.02114669,"MEAN_MOTION_DDOT":0},{"OBJECT_NAME":"STARLINK-35970","OBJECT_ID":"2025-271B","EPOCH":"2025-12-14T06:00:02.999808","MEAN_MOTION":15.49409772,"ECCENTRICITY":7.175e-5,"INCLINATION":53.1599,"RA_OF_ASC_NODE":179.8989,"ARG_OF_PERICENTER":69.6392,"MEAN_ANOMALY":220.5778,"EPHEMERIS_TYPE":0,"CLASSIFICATION_TYPE":"U","NORAD_CAT_ID":66618,"ELEMENT_SET_NO":999,"REV_AT_EPOCH":448,"BSTAR":-0.0032422425,"MEAN_MOTION_DOT":-0.0017736,"MEAN_MOTION_DDOT":0},{"OBJECT_NAME":"STARLINK-35951","OBJECT_ID":"2025-271C","EPOCH":"2025-12-14T06:00:02.999808","MEAN_MOTION":15.4939485,"ECCENTRICITY":4.814e-5,"INCLINATION":53.1602,"RA_OF_ASC_NODE":179.9946,"ARG_OF_PERICENTER":116.713,"MEAN_ANOMALY":127.8459,"EPHEMERIS_TYPE":0,"CLASSIFICATION_TYPE":"U","NORAD_CAT_ID":66619,"ELEMENT_SET_NO":999,"REV_AT_EPOCH":448,"BSTAR":-0.002705641,"MEAN_MOTION_DOT":-0.00148542,"MEAN_MOTION_DDOT":0},{"OBJECT_NAME":"STARLINK-35936","OBJECT_ID":"2025-271D","EPOCH":"2025-12-14T06:00:02.999808","MEAN_MOTION":15.493505,"ECCENTRICITY":8.731e-5,"INCLINATION":53.1601,"RA_OF_ASC_NODE":180.0078,"ARG_OF_PERICENTER":62.2394,"MEAN_ANOMALY":176.5969,"EPHEMERIS_TYPE":0,"CLASSIFICATION_TYPE":"U","NORAD_CAT_ID":66620,"ELEMENT_SET_NO":999,"REV_AT_EPOCH":448,"BSTAR":-0.0016207385,"MEAN_MOTION_DOT":-0.00089689,"MEAN_MOTION_DDOT":0},{"OBJECT_NAME":"STARLINK-35847","OBJECT_ID":"2025-271E","EPOCH":"2025-12-14T06:00:02.999808","MEAN_MOTION":15.49400218,"ECCENTRICITY":7.476e-5,"INCLINATION":53.1601,"RA_OF_ASC_NODE":179.891,"ARG_OF_PERICENTER":67.983,"MEAN_ANOMALY":225.7588,"EPHEMERIS_TYPE":0,"CLASSIFICATION_TYPE":"U","NORAD_CAT_ID":66621,"ELEMENT_SET_NO":999,"REV_AT_EPOCH":448,"BSTAR":-0.0027953596,"MEAN_MOTION_DOT":-0.0015339,"MEAN_MOTION_DDOT":0},{"OBJECT_NAME":"STARLINK-35950","OBJECT_ID":"2025-271F","EPOCH":"2025-12-14T06:00:02.999808","MEAN_MOTION":15.49352848,"ECCENTRICITY":7.64e-5,"INCLINATION":53.1601,"RA_OF_ASC_NODE":179.9916,"ARG_OF_PERICENTER":85.0465,"MEAN_ANOMALY":161.4622,"EPHEMERIS_TYPE":0,"CLASSIFICATION_TYPE":"U","NORAD_CAT_ID":66622,"ELEMENT_SET_NO":999,"REV_AT_EPOCH":448,"BSTAR":-0.0017450764,"MEAN_MOTION_DOT":-0.0009646,"MEAN_MOTION_DDOT":0},{"OBJECT_NAME":"STARLINK-35920","OBJECT_ID":"2025-271G","EPOCH":"2025-12-14T06:00:02.999808","MEAN_MOTION":15.49356845,"ECCENTRICITY":0.0001189,"INCLINATION":53.1602,"RA_OF_ASC_NODE":179.9828,"ARG_OF_PERICENTER":93.9748,"MEAN_ANOMALY":156.3591,"EPHEMERIS_TYPE":0,"CLASSIFICATION_TYPE":"U","NORAD_CAT_ID":66623,"ELEMENT_SET_NO":999,"REV_AT_EPOCH":448,"BSTAR":-0.0012524123,"MEAN_MOTION_DOT":-0.00069602,"MEAN_MOTION_DDOT":0}]
